{
  "type": "FeatureCollection",
  "features": [
    {
      "type": "Feature",
      "properties": {
        "norad_id": 34492,
        "name": "IRIDIUM 33 DEB",
        "group": "iridium-33-debris",
        "lat": 30.67140685463915,
        "lon": 152.96772548091863,
        "alt_km": 808.0911208705948,
        "timestamp": "2025-12-11T15:53:39.928503+00:00",
        "meta_object_name": "IRIDIUM 33 DEB",
        "meta_object_id": "1997-051GH",
        "meta_epoch": "2025-12-10T11:09:51.703200",
        "meta_mean_motion": 14.25634536,
        "meta_eccentricity": 0.01891979,
        "meta_inclination": 86.473,
        "meta_ra_of_asc_node": 335.5473,
        "meta_arg_of_pericenter": 245.5701,
        "meta_mean_anomaly": 245.7256,
        "meta_ephemeris_type": 0,
        "meta_classification_type": "U",
        "meta_norad_cat_id": 34492,
        "meta_element_set_no": 999,
        "meta_rev_at_epoch": 85026,
        "meta_bstar": 0.0074682378,
        "meta_mean_motion_dot": 0.00021406,
        "meta_mean_motion_ddot": 0,
        "tle_line1": "1 34492U 97051GH  25344.46518175  .00021406  00000+0  74682-2 0  9990",
        "tle_line2": "2 34492  86.4730 335.5473 0189197 245.5701 245.7256 14.25634536850262"
      },
      "geometry": {
        "type": "Point",
        "coordinates": [
          152.96772548091863,
          30.67140685463915
        ]
      }
    },
    {
      "type": "Feature",
      "properties": {
        "norad_id": 34497,
        "name": "IRIDIUM 33 DEB",
        "group": "iridium-33-debris",
        "lat": 23.34754201176784,
        "lon": 54.47226815633926,
        "alt_km": 756.4241303021981,
        "timestamp": "2025-12-11T15:53:39.928516+00:00",
        "meta_object_name": "IRIDIUM 33 DEB",
        "meta_object_id": "1997-051GN",
        "meta_epoch": "2025-12-10T04:35:23.086752",
        "meta_mean_motion": 14.2744131,
        "meta_eccentricity": 0.00790645,
        "meta_inclination": 86.2779,
        "meta_ra_of_asc_node": 53.4903,
        "meta_arg_of_pericenter": 347.8917,
        "meta_mean_anomaly": 40.4515,
        "meta_ephemeris_type": 0,
        "meta_classification_type": "U",
        "meta_norad_cat_id": 34497,
        "meta_element_set_no": 999,
        "meta_rev_at_epoch": 86847,
        "meta_bstar": 0.00082191095,
        "meta_mean_motion_dot": 2.102e-05,
        "meta_mean_motion_ddot": 0,
        "tle_line1": "1 34497U 97051GN  25344.19123943  .00002102  00000+0  82191-3 0  9997",
        "tle_line2": "2 34497  86.2779  53.4903 0079064 347.8917  40.4515 14.27441310868476"
      },
      "geometry": {
        "type": "Point",
        "coordinates": [
          54.47226815633926,
          23.34754201176784
        ]
      }
    },
    {
      "type": "Feature",
      "properties": {
        "norad_id": 34508,
        "name": "IRIDIUM 33 DEB",
        "group": "iridium-33-debris",
        "lat": 41.80471817667053,
        "lon": -80.15473407411574,
        "alt_km": 723.4230484908885,
        "timestamp": "2025-12-11T15:53:39.928526+00:00",
        "meta_object_name": "IRIDIUM 33 DEB",
        "meta_object_id": "1997-051GZ",
        "meta_epoch": "2025-12-11T06:54:18.303840",
        "meta_mean_motion": 14.38408433,
        "meta_eccentricity": 0.00659662,
        "meta_inclination": 86.3699,
        "meta_ra_of_asc_node": 103.2585,
        "meta_arg_of_pericenter": 177.6911,
        "meta_mean_anomaly": 182.4606,
        "meta_ephemeris_type": 0,
        "meta_classification_type": "U",
        "meta_norad_cat_id": 34508,
        "meta_element_set_no": 999,
        "meta_rev_at_epoch": 87288,
        "meta_bstar": 0.0027452722,
        "meta_mean_motion_dot": 8.607e-05,
        "meta_mean_motion_ddot": 0,
        "tle_line1": "1 34508U 97051GZ  25345.28771185  .00008607  00000+0  27453-2 0  9993",
        "tle_line2": "2 34508  86.3699 103.2585 0065966 177.6911 182.4606 14.38408433872889"
      },
      "geometry": {
        "type": "Point",
        "coordinates": [
          -80.15473407411574,
          41.80471817667053
        ]
      }
    },
    {
      "type": "Feature",
      "properties": {
        "norad_id": 34521,
        "name": "IRIDIUM 33 DEB",
        "group": "iridium-33-debris",
        "lat": -39.65020307328493,
        "lon": -145.9703456171524,
        "alt_km": 688.002150181087,
        "timestamp": "2025-12-11T15:53:39.928538+00:00",
        "meta_object_name": "IRIDIUM 33 DEB",
        "meta_object_id": "1997-051HN",
        "meta_epoch": "2025-12-11T03:24:20.282688",
        "meta_mean_motion": 14.63343706,
        "meta_eccentricity": 0.00013776,
        "meta_inclination": 86.38,
        "meta_ra_of_asc_node": 31.2512,
        "meta_arg_of_pericenter": 224.2146,
        "meta_mean_anomaly": 135.8956,
        "meta_ephemeris_type": 0,
        "meta_classification_type": "U",
        "meta_norad_cat_id": 34521,
        "meta_element_set_no": 999,
        "meta_rev_at_epoch": 88449,
        "meta_bstar": 0.0013462152,
        "meta_mean_motion_dot": 6.973e-05,
        "meta_mean_motion_ddot": 0,
        "tle_line1": "1 34521U 97051HN  25345.14190142  .00006973  00000+0  13462-2 0  9990",
        "tle_line2": "2 34521  86.3800  31.2512 0001377 224.2146 135.8956 14.63343706884492"
      },
      "geometry": {
        "type": "Point",
        "coordinates": [
          -145.9703456171524,
          -39.65020307328493
        ]
      }
    },
    {
      "type": "Feature",
      "properties": {
        "norad_id": 34525,
        "name": "IRIDIUM 33 DEB",
        "group": "iridium-33-debris",
        "lat": 61.791871610335406,
        "lon": -139.48818101692694,
        "alt_km": 738.5406735164315,
        "timestamp": "2025-12-11T15:53:39.928548+00:00",
        "meta_object_name": "IRIDIUM 33 DEB",
        "meta_object_id": "1997-051HS",
        "meta_epoch": "2025-12-11T05:41:41.994240",
        "meta_mean_motion": 14.42899874,
        "meta_eccentricity": 0.00066869,
        "meta_inclination": 86.3728,
        "meta_ra_of_asc_node": 47.4849,
        "meta_arg_of_pericenter": 98.7535,
        "meta_mean_anomaly": 333.0533,
        "meta_ephemeris_type": 0,
        "meta_classification_type": "U",
        "meta_norad_cat_id": 34525,
        "meta_element_set_no": 999,
        "meta_rev_at_epoch": 88066,
        "meta_bstar": 0.00054841591,
        "meta_mean_motion_dot": 1.851e-05,
        "meta_mean_motion_ddot": 0,
        "tle_line1": "1 34525U 97051HS  25345.23729160  .00001851  00000+0  54842-3 0  9990",
        "tle_line2": "2 34525  86.3728  47.4849 0006686  98.7535 333.0533 14.42899874880668"
      },
      "geometry": {
        "type": "Point",
        "coordinates": [
          -139.48818101692694,
          61.791871610335406
        ]
      }
    },
    {
      "type": "Feature",
      "properties": {
        "norad_id": 34529,
        "name": "IRIDIUM 33 DEB",
        "group": "iridium-33-debris",
        "lat": 21.409594805383172,
        "lon": 37.299794337181325,
        "alt_km": 759.4496823109112,
        "timestamp": "2025-12-11T15:53:39.928559+00:00",
        "meta_object_name": "IRIDIUM 33 DEB",
        "meta_object_id": "1997-051HW",
        "meta_epoch": "2025-12-11T04:07:33.338496",
        "meta_mean_motion": 14.40613819,
        "meta_eccentricity": 0.00046099,
        "meta_inclination": 86.3642,
        "meta_ra_of_asc_node": 36.0802,
        "meta_arg_of_pericenter": 181.7782,
        "meta_mean_anomaly": 178.3402,
        "meta_ephemeris_type": 0,
        "meta_classification_type": "U",
        "meta_norad_cat_id": 34529,
        "meta_element_set_no": 999,
        "meta_rev_at_epoch": 88119,
        "meta_bstar": 0.00016814753,
        "meta_mean_motion_dot": 5.56e-06,
        "meta_mean_motion_ddot": 0,
        "tle_line1": "1 34529U 97051HW  25345.17191364  .00000556  00000+0  16815-3 0  9995",
        "tle_line2": "2 34529  86.3642  36.0802 0004609 181.7782 178.3402 14.40613819881195"
      },
      "geometry": {
        "type": "Point",
        "coordinates": [
          37.299794337181325,
          21.409594805383172
        ]
      }
    },
    {
      "type": "Feature",
      "properties": {
        "norad_id": 34538,
        "name": "IRIDIUM 33 DEB",
        "group": "iridium-33-debris",
        "lat": -30.515518624067184,
        "lon": -171.77280118476443,
        "alt_km": 768.0596140615553,
        "timestamp": "2025-12-11T15:53:39.928569+00:00",
        "meta_object_name": "IRIDIUM 33 DEB",
        "meta_object_id": "1997-051JF",
        "meta_epoch": "2025-12-10T12:59:24.609120",
        "meta_mean_motion": 14.42626981,
        "meta_eccentricity": 0.0033054,
        "meta_inclination": 86.2772,
        "meta_ra_of_asc_node": 6.5186,
        "meta_arg_of_pericenter": 335.5091,
        "meta_mean_anomaly": 177.0552,
        "meta_ephemeris_type": 0,
        "meta_classification_type": "U",
        "meta_norad_cat_id": 34538,
        "meta_element_set_no": 999,
        "meta_rev_at_epoch": 87724,
        "meta_bstar": 0.0013644,
        "meta_mean_motion_dot": 4.581e-05,
        "meta_mean_motion_ddot": 0,
        "tle_line1": "1 34538U 97051JF  25344.54125705  .00004581  00000+0  13644-2 0  9999",
        "tle_line2": "2 34538  86.2772   6.5186 0033054 335.5091 177.0552 14.42626981877242"
      },
      "geometry": {
        "type": "Point",
        "coordinates": [
          -171.77280118476443,
          -30.515518624067184
        ]
      }
    }
  ]
}